{
    "links": {
        "self": "http://www.neowsapp.com/rest/v1/neo/3406330?api_key=iIulBulltgU6a56xZRHN4H3l9WmuAYTsLGpBGhQ2"
    },
    "id": "3406330",
    "neo_reference_id": "3406330",
    "name": "(2008 EB85)",
    "designation": "2008 EB85",
    "nasa_jpl_url": "http://ssd.jpl.nasa.gov/sbdb.cgi?sstr=3406330",
    "absolute_magnitude_h": 23.7,
    "estimated_diameter": {
        "kilometers": {
            "estimated_diameter_min": 0.0483676488,
            "estimated_diameter_max": 0.1081533507
        },
        "meters": {
            "estimated_diameter_min": 48.3676488219,
            "estimated_diameter_max": 108.1533506775
        },
        "miles": {
            "estimated_diameter_min": 0.0300542543,
            "estimated_diameter_max": 0.0672033557
        },
        "feet": {
            "estimated_diameter_min": 158.6865169607,
            "estimated_diameter_max": 354.8338390368
        }
    },
    "is_potentially_hazardous_asteroid": false,
    "close_approach_data": [
        {
            "close_approach_date": "2008-03-29",
            "close_approach_date_full": "2008-Mar-29 20:54",
            "epoch_date_close_approach": 1206824040000,
            "relative_velocity": {
                "kilometers_per_second": "12.3705578268",
                "kilometers_per_hour": "44534.0081763083",
                "miles_per_hour": "27671.7008026622"
            },
            "miss_distance": {
                "astronomical": "0.1071669247",
                "lunar": "41.6879337083",
                "kilometers": "16031943.669570389",
                "miles": "9961787.8620298082"
            },
            "orbiting_body": "Earth"
        }
    ],
    "orbital_data": {
        "orbit_id": "6",
        "orbit_determination_date": "2017-04-06 09:03:59",
        "first_observation_date": "2008-03-13",
        "last_observation_date": "2008-03-15",
        "data_arc_in_days": 2,
        "observations_used": 22,
        "orbit_uncertainty": "9",
        "minimum_orbit_intersection": ".0437863",
        "jupiter_tisserand_invariant": "4.985",
        "epoch_osculation": "2454539.5",
        "eccentricity": ".454049645567048",
        "semi_major_axis": "1.262181846892203",
        "inclination": "10.80347446163646",
        "ascending_node_longitude": "171.8510747406299",
        "orbital_period": "517.94222897383",
        "perihelion_distance": ".6890886266696362",
        "perihelion_argument": "104.607336139272",
        "aphelion_distance": "1.83527506711477",
        "perihelion_time": "2454615.064299152630",
        "mean_anomaly": "307.478413280101",
        "mean_motion": ".6950582127918936",
        "equinox": "J2000",
        "orbit_class": {
            "orbit_class_type": "APO",
            "orbit_class_description": "Near-Earth asteroid orbits which cross the Earth’s orbit similar to that of 1862 Apollo",
            "orbit_class_range": "a (semi-major axis) > 1.0 AU; q (perihelion) < 1.017 AU"
        }
    },
    "is_sentry_object": false
}